*******************************************************************************
Ephemeris / WWW_USER Mon Mar 24 07:47:40 2025 Pasadena, USA      / Horizons    
*******************************************************************************
Target body name: (2018 TB)                       {source: JPL#26}
Center body name: Earth (399)                     {source: DE441}
Center-site name: Mauna Kea
*******************************************************************************
Start time      : A.D. 2018-Dec-06 03:52:00.0000 UT      
Stop  time      : A.D. 2018-Dec-06 16:33:00.0000 UT      
Step-size       : 1 minutes
*******************************************************************************
Target pole/equ : undefined
Target radii    : undefined                                                    
Center geodetic : 204.5278, 19.8260847, 4.21024   {E-lon(deg),Lat(deg),Alt(km)}
Center cylindric: 204.5278, 6006.35451, 2151.0229 {E-lon(deg),Dxy(km),Dz(km)}
Center pole/equ : ITRF93                          {East-longitude positive}
Center radii    : 6378.137, 6378.137, 6356.752 km {Equator_a, b, pole_c}       
Target primary  : Sun
Vis. interferer : MOON (R_eq= 1737.400) km        {source: DE441}
Rel. light bend : Sun                             {source: DE441}
Rel. lght bnd GM: 1.3271E+11 km^3/s^2                                          
Small-body perts: Yes                             {source: SB441-N16}
Atmos refraction: NO (AIRLESS)
RA format       : HMS
Time format     : CAL 
Calendar mode   : Mixed Julian/Gregorian
RTS-only print  : NO       
EOP file        : eop.250321.p250617                                           
EOP coverage    : DATA-BASED 1962-JAN-20 TO 2025-MAR-21. PREDICTS-> 2025-JUN-16
Units conversion: 1 au= 149597870.700 km, c= 299792.458 km/s, 1 day= 86400.0 s 
Table cut-offs 1: Elevation (-90.0deg=NO ),Airmass (>38.000=NO), Daylight (YES)
Table cut-offs 2: Solar elongation (  0.0,180.0=NO ),Local Hour Angle( 0.0=NO )
Table cut-offs 3: RA/DEC angular rate (     0.0=NO )                           
*******************************************************************************
Initial IAU76/J2000 heliocentric ecliptic osculating elements (au, days, deg.):
  EPOCH=  2458410.5 ! 2018-Oct-19.00 (TDB)         Residual RMS= .12604        
   EC= .5817616216321111   QR= 1.001672821897195   TP= 2458383.1822299529      
   OM= 14.42282174156359   W=  341.1556337077549   IN= 3.61300419916586        
  Equivalent ICRF heliocentric cartesian coordinates (au, au/d):
   X= 9.381709462996228E-01  Y= 4.515017153732180E-01  Z= 2.129237315158303E-01
  VX=-5.799214133182419E-03 VY= 1.778204046057418E-02 VZ= 9.138573561666745E-03
Asteroid physical parameters (km, seconds, rotational period in hours):        
   GM= n.a.                RAD= n.a.               ROTPER= n.a.                
   H= 24.89                G= .150                 B-V= n.a.                   
                           ALBEDO= n.a.            STYP= n.a.                  
*******************************************************************************
 Date__(UT)__HR:MN     R.A._________(ICRF)_________DEC
******************************************************
$$SOE
 2018-Dec-06 16:10 Nm  03 43 03.835020 +30 16 51.12976
 2018-Dec-06 16:11 Nm  03 43 03.838495 +30 16 50.83855
 2018-Dec-06 16:12 Nm  03 43 03.842000 +30 16 50.54740
 2018-Dec-06 16:13 Nm  03 43 03.845535 +30 16 50.25631
 2018-Dec-06 16:14 Nm  03 43 03.849100 +30 16 49.96529
 2018-Dec-06 16:15 Nm  03 43 03.852695 +30 16 49.67432
 2018-Dec-06 16:16 Nm  03 43 03.856320 +30 16 49.38343
 2018-Dec-06 16:17 Nm  03 43 03.859975 +30 16 49.09260
 2018-Dec-06 16:18 Nm  03 43 03.863660 +30 16 48.80183
 2018-Dec-06 16:19 Nm  03 43 03.867374 +30 16 48.51114
 2018-Dec-06 16:20 Cm  03 43 03.871118 +30 16 48.22051
 2018-Dec-06 16:21 Cm  03 43 03.874892 +30 16 47.92995
 2018-Dec-06 16:22 Cm  03 43 03.878695 +30 16 47.63946
 2018-Dec-06 16:23 Cm  03 43 03.882529 +30 16 47.34904
 2018-Dec-06 16:24 Cm  03 43 03.886391 +30 16 47.05869
 2018-Dec-06 16:25 Cm  03 43 03.890283 +30 16 46.76842
 2018-Dec-06 16:26 Cm  03 43 03.894205 +30 16 46.47822
 2018-Dec-06 16:27 Cm  03 43 03.898156 +30 16 46.18809
 2018-Dec-06 16:28 Cm  03 43 03.902136 +30 16 45.89803
 2018-Dec-06 16:29 Cm  03 43 03.906146 +30 16 45.60806
 2018-Dec-06 16:30 Cm  03 43 03.910185 +30 16 45.31815
 2018-Dec-06 16:31 Cm  03 43 03.914254 +30 16 45.02833
 2018-Dec-06 16:32 Cm  03 43 03.918351 +30 16 44.73858
 2018-Dec-06 16:33 Cm  03 43 03.922477 +30 16 44.44891
